[{"OBJECT_NAME":"ONEWEB-0334","OBJECT_ID":"2021-083Q","EPOCH":"2026-02-04T06:21:45.766656","MEAN_MOTION":13.20774719,"ECCENTRICITY":7.664e-5,"INCLINATION":87.9206,"RA_OF_ASC_NODE":300.9853,"ARG_OF_PERICENTER":91.1315,"MEAN_ANOMALY":268.9906,"EPHEMERIS_TYPE":0,"CLASSIFICATION_TYPE":"U","NORAD_CAT_ID":49200,"ELEMENT_SET_NO":999,"REV_AT_EPOCH":21924,"BSTAR":-5.2720602e-5,"MEAN_MOTION_DOT":-8.0e-8,"MEAN_MOTION_DDOT":0},{"OBJECT_NAME":"ONEWEB-0335","OBJECT_ID":"2021-083R","EPOCH":"2026-02-04T06:45:09.249984","MEAN_MOTION":13.13470999,"ECCENTRICITY":0.00019595,"INCLINATION":87.9022,"RA_OF_ASC_NODE":346.6533,"ARG_OF_PERICENTER":77.2162,"MEAN_ANOMALY":282.9186,"EPHEMERIS_TYPE":0,"CLASSIFICATION_TYPE":"U","NORAD_CAT_ID":49201,"ELEMENT_SET_NO":999,"REV_AT_EPOCH":21347,"BSTAR":-0.00054888357,"MEAN_MOTION_DOT":-1.88e-6,"MEAN_MOTION_DDOT":0},{"OBJECT_NAME":"ONEWEB-0336","OBJECT_ID":"2021-083S","EPOCH":"2026-02-04T06:03:43.826112","MEAN_MOTION":13.13470391,"ECCENTRICITY":0.00022256,"INCLINATION":87.9021,"RA_OF_ASC_NODE":346.6563,"ARG_OF_PERICENTER":78.7686,"MEAN_ANOMALY":281.3693,"EPHEMERIS_TYPE":0,"CLASSIFICATION_TYPE":"U","NORAD_CAT_ID":49202,"ELEMENT_SET_NO":999,"REV_AT_EPOCH":21346,"BSTAR":-1.0694703e-5,"MEAN_MOTION_DOT":9.0e-8,"MEAN_MOTION_DDOT":0},{"OBJECT_NAME":"ONEWEB-0337","OBJECT_ID":"2021-083T","EPOCH":"2026-02-04T06:18:08.354016","MEAN_MOTION":13.13469236,"ECCENTRICITY":0.00020187,"INCLINATION":87.9018,"RA_OF_ASC_NODE":346.6657,"ARG_OF_PERICENTER":84.2161,"MEAN_ANOMALY":275.9198,"EPHEMERIS_TYPE":0,"CLASSIFICATION_TYPE":"U","NORAD_CAT_ID":49203,"ELEMENT_SET_NO":999,"REV_AT_EPOCH":21346,"BSTAR":-0.0004651603,"MEAN_MOTION_DOT":-1.57e-6,"MEAN_MOTION_DDOT":0},{"OBJECT_NAME":"ONEWEB-0338","OBJECT_ID":"2021-083U","EPOCH":"2026-02-04T05:45:24.180480","MEAN_MOTION":13.20770438,"ECCENTRICITY":0.00014091,"INCLINATION":87.9214,"RA_OF_ASC_NODE":300.9929,"ARG_OF_PERICENTER":81.303,"MEAN_ANOMALY":278.8262,"EPHEMERIS_TYPE":0,"CLASSIFICATION_TYPE":"U","NORAD_CAT_ID":49204,"ELEMENT_SET_NO":999,"REV_AT_EPOCH":21926,"BSTAR":6.2604089e-5,"MEAN_MOTION_DOT":3.8e-7,"MEAN_MOTION_DDOT":0},{"OBJECT_NAME":"ONEWEB-0339","OBJECT_ID":"2021-083V","EPOCH":"2026-02-04T06:30:32.599296","MEAN_MOTION":13.13470171,"ECCENTRICITY":0.00015679,"INCLINATION":87.9026,"RA_OF_ASC_NODE":346.6484,"ARG_OF_PERICENTER":86.4891,"MEAN_ANOMALY":273.6418,"EPHEMERIS_TYPE":0,"CLASSIFICATION_TYPE":"U","NORAD_CAT_ID":49205,"ELEMENT_SET_NO":999,"REV_AT_EPOCH":21344,"BSTAR":-0.00073871773,"MEAN_MOTION_DOT":-2.57e-6,"MEAN_MOTION_DDOT":0},{"OBJECT_NAME":"ONEWEB-0340","OBJECT_ID":"2021-083W","EPOCH":"2026-02-04T06:35:05.461728","MEAN_MOTION":13.18687895,"ECCENTRICITY":0.00018977,"INCLINATION":87.9218,"RA_OF_ASC_NODE":1.8377,"ARG_OF_PERICENTER":80.1956,"MEAN_ANOMALY":279.9391,"EPHEMERIS_TYPE":0,"CLASSIFICATION_TYPE":"U","NORAD_CAT_ID":49206,"ELEMENT_SET_NO":999,"REV_AT_EPOCH":21245,"BSTAR":0.00018087788,"MEAN_MOTION_DOT":8.4e-7,"MEAN_MOTION_DDOT":0},{"OBJECT_NAME":"ONEWEB-0341","OBJECT_ID":"2021-083X","EPOCH":"2026-02-04T06:44:37.121280","MEAN_MOTION":13.18687193,"ECCENTRICITY":0.00021565,"INCLINATION":87.9214,"RA_OF_ASC_NODE":1.8471,"ARG_OF_PERICENTER":95.0266,"MEAN_ANOMALY":265.1113,"EPHEMERIS_TYPE":0,"CLASSIFICATION_TYPE":"U","NORAD_CAT_ID":49207,"ELEMENT_SET_NO":999,"REV_AT_EPOCH":21247,"BSTAR":-0.00011677256,"MEAN_MOTION_DOT":-3.3e-7,"MEAN_MOTION_DDOT":0},{"OBJECT_NAME":"ONEWEB-0342","OBJECT_ID":"2021-083Y","EPOCH":"2026-02-04T05:54:29.436192","MEAN_MOTION":13.20773888,"ECCENTRICITY":0.0001612,"INCLINATION":87.9223,"RA_OF_ASC_NODE":300.9668,"ARG_OF_PERICENTER":79.6804,"MEAN_ANOMALY":280.4511,"EPHEMERIS_TYPE":0,"CLASSIFICATION_TYPE":"U","NORAD_CAT_ID":49208,"ELEMENT_SET_NO":999,"REV_AT_EPOCH":21923,"BSTAR":2.733008e-6,"MEAN_MOTION_DOT":1.4e-7,"MEAN_MOTION_DDOT":0},{"OBJECT_NAME":"ONEWEB-0343","OBJECT_ID":"2021-083Z","EPOCH":"2026-02-04T06:56:28.194144","MEAN_MOTION":13.18687753,"ECCENTRICITY":0.00018543,"INCLINATION":87.9217,"RA_OF_ASC_NODE":1.8392,"ARG_OF_PERICENTER":99.6508,"MEAN_ANOMALY":260.4833,"EPHEMERIS_TYPE":0,"CLASSIFICATION_TYPE":"U","NORAD_CAT_ID":49209,"ELEMENT_SET_NO":999,"REV_AT_EPOCH":21252,"BSTAR":3.9137619e-5,"MEAN_MOTION_DOT":2.8e-7,"MEAN_MOTION_DDOT":0},{"OBJECT_NAME":"ONEWEB-0344","OBJECT_ID":"2021-083AA","EPOCH":"2026-02-04T06:23:13.210368","MEAN_MOTION":13.13471309,"ECCENTRICITY":0.00020428,"INCLINATION":87.901,"RA_OF_ASC_NODE":346.6763,"ARG_OF_PERICENTER":89.4336,"MEAN_ANOMALY":270.7027,"EPHEMERIS_TYPE":0,"CLASSIFICATION_TYPE":"U","NORAD_CAT_ID":49210,"ELEMENT_SET_NO":999,"REV_AT_EPOCH":21344,"BSTAR":-0.00069139914,"MEAN_MOTION_DOT":-2.4e-6,"MEAN_MOTION_DDOT":0},{"OBJECT_NAME":"ONEWEB-0345","OBJECT_ID":"2021-083AB","EPOCH":"2026-02-04T06:11:01.812768","MEAN_MOTION":13.13468936,"ECCENTRICITY":0.00020636,"INCLINATION":87.903,"RA_OF_ASC_NODE":346.642,"ARG_OF_PERICENTER":90.6917,"MEAN_ANOMALY":269.4449,"EPHEMERIS_TYPE":0,"CLASSIFICATION_TYPE":"U","NORAD_CAT_ID":49211,"ELEMENT_SET_NO":999,"REV_AT_EPOCH":21345,"BSTAR":-0.00015962211,"MEAN_MOTION_DOT":-4.6e-7,"MEAN_MOTION_DDOT":0},{"OBJECT_NAME":"ONEWEB-0346","OBJECT_ID":"2021-083AC","EPOCH":"2026-02-04T06:51:43.830144","MEAN_MOTION":13.1868576,"ECCENTRICITY":0.00024046,"INCLINATION":87.9206,"RA_OF_ASC_NODE":1.851,"ARG_OF_PERICENTER":71.9014,"MEAN_ANOMALY":288.238,"EPHEMERIS_TYPE":0,"CLASSIFICATION_TYPE":"U","NORAD_CAT_ID":49212,"ELEMENT_SET_NO":999,"REV_AT_EPOCH":21246,"BSTAR":-5.8030082e-5,"MEAN_MOTION_DOT":-1.0e-7,"MEAN_MOTION_DDOT":0},{"OBJECT_NAME":"ONEWEB-0348","OBJECT_ID":"2021-083AD","EPOCH":"2026-02-04T05:40:52.024800","MEAN_MOTION":13.20772334,"ECCENTRICITY":0.00022516,"INCLINATION":87.9221,"RA_OF_ASC_NODE":300.972,"ARG_OF_PERICENTER":79.581,"MEAN_ANOMALY":280.5577,"EPHEMERIS_TYPE":0,"CLASSIFICATION_TYPE":"U","NORAD_CAT_ID":49213,"ELEMENT_SET_NO":999,"REV_AT_EPOCH":21926,"BSTAR":0.00034762882,"MEAN_MOTION_DOT":1.54e-6,"MEAN_MOTION_DDOT":0},{"OBJECT_NAME":"ONEWEB-0350","OBJECT_ID":"2021-083AE","EPOCH":"2026-02-04T06:24:25.764768","MEAN_MOTION":13.13472203,"ECCENTRICITY":0.00020726,"INCLINATION":87.9026,"RA_OF_ASC_NODE":346.64,"ARG_OF_PERICENTER":86.3768,"MEAN_ANOMALY":273.7598,"EPHEMERIS_TYPE":0,"CLASSIFICATION_TYPE":"U","NORAD_CAT_ID":49214,"ELEMENT_SET_NO":999,"REV_AT_EPOCH":21348,"BSTAR":-0.00059094909,"MEAN_MOTION_DOT":-2.03e-6,"MEAN_MOTION_DDOT":0},{"OBJECT_NAME":"ONEWEB-0351","OBJECT_ID":"2021-083AF","EPOCH":"2026-02-04T05:31:35.563008","MEAN_MOTION":13.20772582,"ECCENTRICITY":0.00011862,"INCLINATION":87.922,"RA_OF_ASC_NODE":300.9716,"ARG_OF_PERICENTER":109.4897,"MEAN_ANOMALY":250.6365,"EPHEMERIS_TYPE":0,"CLASSIFICATION_TYPE":"U","NORAD_CAT_ID":49215,"ELEMENT_SET_NO":999,"REV_AT_EPOCH":21922,"BSTAR":0.00029648899,"MEAN_MOTION_DOT":1.34e-6,"MEAN_MOTION_DDOT":0}]
