ONEWEB-0334             
1 49200U 21083Q   26035.26511304 -.00000008  00000+0 -52721-4 0  9997
2 49200  87.9206 300.9853 0000766  91.1315 268.9906 13.20774719219245
ONEWEB-0335             
1 49201U 21083R   26035.28135706 -.00000188  00000+0 -54888-3 0  9992
2 49201  87.9022 346.6533 0001959  77.2162 282.9186 13.13470999213474
ONEWEB-0336             
1 49202U 21083S   26035.25259058  .00000009  00000+0 -10695-4 0  9997
2 49202  87.9021 346.6563 0002225  78.7686 281.3693 13.13470391213462
ONEWEB-0337             
1 49203U 21083T   26035.26259669 -.00000157  00000+0 -46516-3 0  9992
2 49203  87.9018 346.6657 0002018  84.2161 275.9198 13.13469236213468
ONEWEB-0338             
1 49204U 21083U   26035.23986320  .00000038  00000+0  62604-4 0  9994
2 49204  87.9214 300.9929 0001409  81.3030 278.8262 13.20770438219263
ONEWEB-0339             
1 49205U 21083V   26035.27121064 -.00000257  00000+0 -73872-3 0  9998
2 49205  87.9026 346.6484 0001567  86.4891 273.6418 13.13470171213447
ONEWEB-0340             
1 49206U 21083W   26035.27436877  .00000084  00000+0  18088-3 0  9994
2 49206  87.9218   1.8377 0001897  80.1956 279.9391 13.18687895212458
ONEWEB-0341             
1 49207U 21083X   26035.28098520 -.00000033  00000+0 -11677-3 0  9998
2 49207  87.9214   1.8471 0002156  95.0266 265.1113 13.18687193212470
ONEWEB-0342             
1 49208U 21083Y   26035.24617403  .00000014  00000+0  27330-5 0  9994
2 49208  87.9223 300.9668 0001612  79.6804 280.4511 13.20773888219237
ONEWEB-0343             
1 49209U 21083Z   26035.28921521  .00000028  00000+0  39138-4 0  9991
2 49209  87.9217   1.8392 0001854  99.6508 260.4833 13.18687753212525
ONEWEB-0344             
1 49210U 21083AA  26035.26612512 -.00000240  00000+0 -69140-3 0  9991
2 49210  87.9010 346.6763 0002042  89.4336 270.7027 13.13471309213440
ONEWEB-0345             
1 49211U 21083AB  26035.25765987 -.00000046  00000+0 -15962-3 0  9993
2 49211  87.9030 346.6420 0002063  90.6917 269.4449 13.13468936213451
ONEWEB-0346             
1 49212U 21083AC  26035.28592396 -.00000010  00000+0 -58030-4 0  9994
2 49212  87.9206   1.8510 0002404  71.9014 288.2380 13.18685760212460
ONEWEB-0348             
1 49213U 21083AD  26035.23671325  .00000154  00000+0  34763-3 0  9993
2 49213  87.9221 300.9720 0002251  79.5810 280.5577 13.20772334219267
ONEWEB-0350             
1 49214U 21083AE  26035.26696487 -.00000203  00000+0 -59095-3 0  9995
2 49214  87.9026 346.6400 0002072  86.3768 273.7598 13.13472203213481
ONEWEB-0351             
1 49215U 21083AF  26035.23027272  .00000134  00000+0  29649-3 0  9996
2 49215  87.9220 300.9716 0001186 109.4897 250.6365 13.20772582219221
